KUIPER-00215            
1 67779U 26030R   26057.57833368  .00028602  00000+0  86495-3 0  9992
2 67779  51.8851 272.8475 0009182  30.1831 329.9682 15.33948996  3387
KUIPER-00218            
1 67780U 26030S   26057.63719254  .00019847  00000+0  59018-3 0  9990
2 67780  51.8839 272.4917 0006427  24.1849 335.9437 15.34720556  3390
KUIPER-00220            
1 67781U 26030T   26057.57618380  .00030899  00000+0  92497-3 0  9990
2 67781  51.8818 272.8270 0007993  26.9919 333.1480 15.34240281  3380
KUIPER-00222            
1 67782U 26030U   26057.58954332  .00025754  00000+0  81349-3 0  9990
2 67782  51.8823 272.9114 0017280  31.5632 328.6386 15.32520440  3389
KUIPER-00223            
1 67783U 26030V   26057.58072438  .00020030  00000+0  61340-3 0  9990
2 67783  51.8838 272.8603 0012115  27.9426 332.2207 15.33734973  3382
KUIPER-00225            
1 67784U 26030W   26057.63129059  .00019787  00000+0  57677-3 0  9994
2 67784  51.8810 272.4501 0003632  15.5463 344.5634 15.35362690  3390
KUIPER-00226            
1 67785U 26030X   26057.59628873  .00034015  00000+0  11024-2 0  9994
2 67785  51.8827 272.9550 0019682  38.4057 321.8325 15.31506680  3382
KUIPER-00259            
1 67786U 26030Y   26057.57354170  .00029738  00000+0  88184-3 0  9997
2 67786  51.8815 272.8108 0008023  19.6053 340.5239 15.34557527  3383
KUIPER-00260            
1 67787U 26030Z   26057.62607255  .00033513  00000+0  95069-3 0  9995
2 67787  51.8792 272.4162 0001262  88.5129 271.6002 15.35916360  3300
KUIPER-00262            
1 67788U 26030AA  26057.62392231  .00031837  00000+0  89531-3 0  9995
2 67788  51.8810 272.4037 0001146 133.8508 226.2574 15.36213818  3397
KUIPER-00266            
1 67789U 26030AB  26057.59911734  .00024440  00000+0  80875-3 0  9991
2 67789  51.8822 272.9719 0022302  38.5846 321.6727 15.30962503  3381
KUIPER-00268            
1 67790U 26030AC  26057.62933182  .00020053  00000+0  58116-3 0  9997
2 67790  51.8844 272.4425 0001866  29.7777 330.3315 15.35538508  3393
