CCSDS_OMM_VERS = 2.0
CREATION_DATE  = 
ORIGINATOR     = 

OBJECT_NAME    = KUIPER-00215
OBJECT_ID      = 2026-030R
CENTER_NAME    = EARTH
REF_FRAME      = TEME
TIME_SYSTEM    = UTC
MEAN_ELEMENT_THEORY = SGP/SGP4

EPOCH          = 2026-02-26T13:52:48.029952
MEAN_MOTION    = 15.33948996
ECCENTRICITY   = .0009182
INCLINATION    = 51.8851
RA_OF_ASC_NODE = 272.8475
ARG_OF_PERICENTER = 30.1831
MEAN_ANOMALY   = 329.9682

EPHEMERIS_TYPE = 0
CLASSIFICATION_TYPE = U
NORAD_CAT_ID   = 67779
ELEMENT_SET_NO = 999
REV_AT_EPOCH   = 338
BSTAR          = .86495049E-3
MEAN_MOTION_DOT = .28602E-3
MEAN_MOTION_DDOT = 0

CCSDS_OMM_VERS = 2.0
CREATION_DATE  = 
ORIGINATOR     = 

OBJECT_NAME    = KUIPER-00218
OBJECT_ID      = 2026-030S
CENTER_NAME    = EARTH
REF_FRAME      = TEME
TIME_SYSTEM    = UTC
MEAN_ELEMENT_THEORY = SGP/SGP4

EPOCH          = 2026-02-26T15:17:33.435456
MEAN_MOTION    = 15.34720556
ECCENTRICITY   = .00064272
INCLINATION    = 51.8839
RA_OF_ASC_NODE = 272.4917
ARG_OF_PERICENTER = 24.1849
MEAN_ANOMALY   = 335.9437

EPHEMERIS_TYPE = 0
CLASSIFICATION_TYPE = U
NORAD_CAT_ID   = 67780
ELEMENT_SET_NO = 999
REV_AT_EPOCH   = 339
BSTAR          = .59017515E-3
MEAN_MOTION_DOT = .19847E-3
MEAN_MOTION_DDOT = 0

CCSDS_OMM_VERS = 2.0
CREATION_DATE  = 
ORIGINATOR     = 

OBJECT_NAME    = KUIPER-00220
OBJECT_ID      = 2026-030T
CENTER_NAME    = EARTH
REF_FRAME      = TEME
TIME_SYSTEM    = UTC
MEAN_ELEMENT_THEORY = SGP/SGP4

EPOCH          = 2026-02-26T13:49:42.280320
MEAN_MOTION    = 15.34240281
ECCENTRICITY   = .00079931
INCLINATION    = 51.8818
RA_OF_ASC_NODE = 272.8270
ARG_OF_PERICENTER = 26.9919
MEAN_ANOMALY   = 333.1480

EPHEMERIS_TYPE = 0
CLASSIFICATION_TYPE = U
NORAD_CAT_ID   = 67781
ELEMENT_SET_NO = 999
REV_AT_EPOCH   = 338
BSTAR          = .92496521E-3
MEAN_MOTION_DOT = .30899E-3
MEAN_MOTION_DDOT = 0

CCSDS_OMM_VERS = 2.0
CREATION_DATE  = 
ORIGINATOR     = 

OBJECT_NAME    = KUIPER-00222
OBJECT_ID      = 2026-030U
CENTER_NAME    = EARTH
REF_FRAME      = TEME
TIME_SYSTEM    = UTC
MEAN_ELEMENT_THEORY = SGP/SGP4

EPOCH          = 2026-02-26T14:08:56.542848
MEAN_MOTION    = 15.32520440
ECCENTRICITY   = .001728
INCLINATION    = 51.8823
RA_OF_ASC_NODE = 272.9114
ARG_OF_PERICENTER = 31.5632
MEAN_ANOMALY   = 328.6386

EPHEMERIS_TYPE = 0
CLASSIFICATION_TYPE = U
NORAD_CAT_ID   = 67782
ELEMENT_SET_NO = 999
REV_AT_EPOCH   = 338
BSTAR          = .81349224E-3
MEAN_MOTION_DOT = .25754E-3
MEAN_MOTION_DDOT = 0

CCSDS_OMM_VERS = 2.0
CREATION_DATE  = 
ORIGINATOR     = 

OBJECT_NAME    = KUIPER-00223
OBJECT_ID      = 2026-030V
CENTER_NAME    = EARTH
REF_FRAME      = TEME
TIME_SYSTEM    = UTC
MEAN_ELEMENT_THEORY = SGP/SGP4

EPOCH          = 2026-02-26T13:56:14.586432
MEAN_MOTION    = 15.33734973
ECCENTRICITY   = .00121153
INCLINATION    = 51.8838
RA_OF_ASC_NODE = 272.8603
ARG_OF_PERICENTER = 27.9426
MEAN_ANOMALY   = 332.2207

EPHEMERIS_TYPE = 0
CLASSIFICATION_TYPE = U
NORAD_CAT_ID   = 67783
ELEMENT_SET_NO = 999
REV_AT_EPOCH   = 338
BSTAR          = .613404E-3
MEAN_MOTION_DOT = .2003E-3
MEAN_MOTION_DDOT = 0

CCSDS_OMM_VERS = 2.0
CREATION_DATE  = 
ORIGINATOR     = 

OBJECT_NAME    = KUIPER-00225
OBJECT_ID      = 2026-030W
CENTER_NAME    = EARTH
REF_FRAME      = TEME
TIME_SYSTEM    = UTC
MEAN_ELEMENT_THEORY = SGP/SGP4

EPOCH          = 2026-02-26T15:09:03.506976
MEAN_MOTION    = 15.35362690
ECCENTRICITY   = .00036327
INCLINATION    = 51.8810
RA_OF_ASC_NODE = 272.4501
ARG_OF_PERICENTER = 15.5463
MEAN_ANOMALY   = 344.5634

EPHEMERIS_TYPE = 0
CLASSIFICATION_TYPE = U
NORAD_CAT_ID   = 67784
ELEMENT_SET_NO = 999
REV_AT_EPOCH   = 339
BSTAR          = .57676922E-3
MEAN_MOTION_DOT = .19787E-3
MEAN_MOTION_DDOT = 0

CCSDS_OMM_VERS = 2.0
CREATION_DATE  = 
ORIGINATOR     = 

OBJECT_NAME    = KUIPER-00226
OBJECT_ID      = 2026-030X
CENTER_NAME    = EARTH
REF_FRAME      = TEME
TIME_SYSTEM    = UTC
MEAN_ELEMENT_THEORY = SGP/SGP4

EPOCH          = 2026-02-26T14:18:39.346272
MEAN_MOTION    = 15.31506680
ECCENTRICITY   = .00196822
INCLINATION    = 51.8827
RA_OF_ASC_NODE = 272.9550
ARG_OF_PERICENTER = 38.4057
MEAN_ANOMALY   = 321.8325

EPHEMERIS_TYPE = 0
CLASSIFICATION_TYPE = U
NORAD_CAT_ID   = 67785
ELEMENT_SET_NO = 999
REV_AT_EPOCH   = 338
BSTAR          = .11024083E-2
MEAN_MOTION_DOT = .34015E-3
MEAN_MOTION_DDOT = 0

CCSDS_OMM_VERS = 2.0
CREATION_DATE  = 
ORIGINATOR     = 

OBJECT_NAME    = KUIPER-00259
OBJECT_ID      = 2026-030Y
CENTER_NAME    = EARTH
REF_FRAME      = TEME
TIME_SYSTEM    = UTC
MEAN_ELEMENT_THEORY = SGP/SGP4

EPOCH          = 2026-02-26T13:45:54.002880
MEAN_MOTION    = 15.34557527
ECCENTRICITY   = .00080231
INCLINATION    = 51.8815
RA_OF_ASC_NODE = 272.8108
ARG_OF_PERICENTER = 19.6053
MEAN_ANOMALY   = 340.5239

EPHEMERIS_TYPE = 0
CLASSIFICATION_TYPE = U
NORAD_CAT_ID   = 67786
ELEMENT_SET_NO = 999
REV_AT_EPOCH   = 338
BSTAR          = .88184488E-3
MEAN_MOTION_DOT = .29738E-3
MEAN_MOTION_DDOT = 0

CCSDS_OMM_VERS = 2.0
CREATION_DATE  = 
ORIGINATOR     = 

OBJECT_NAME    = KUIPER-00260
OBJECT_ID      = 2026-030Z
CENTER_NAME    = EARTH
REF_FRAME      = TEME
TIME_SYSTEM    = UTC
MEAN_ELEMENT_THEORY = SGP/SGP4

EPOCH          = 2026-02-26T15:01:32.668320
MEAN_MOTION    = 15.35916360
ECCENTRICITY   = .00012628
INCLINATION    = 51.8792
RA_OF_ASC_NODE = 272.4162
ARG_OF_PERICENTER = 88.5129
MEAN_ANOMALY   = 271.6002

EPHEMERIS_TYPE = 0
CLASSIFICATION_TYPE = U
NORAD_CAT_ID   = 67787
ELEMENT_SET_NO = 999
REV_AT_EPOCH   = 330
BSTAR          = .9506887E-3
MEAN_MOTION_DOT = .33513E-3
MEAN_MOTION_DDOT = 0

CCSDS_OMM_VERS = 2.0
CREATION_DATE  = 
ORIGINATOR     = 

OBJECT_NAME    = KUIPER-00262
OBJECT_ID      = 2026-030AA
CENTER_NAME    = EARTH
REF_FRAME      = TEME
TIME_SYSTEM    = UTC
MEAN_ELEMENT_THEORY = SGP/SGP4

EPOCH          = 2026-02-26T14:58:26.887584
MEAN_MOTION    = 15.36213818
ECCENTRICITY   = .00011463
INCLINATION    = 51.8810
RA_OF_ASC_NODE = 272.4037
ARG_OF_PERICENTER = 133.8508
MEAN_ANOMALY   = 226.2574

EPHEMERIS_TYPE = 0
CLASSIFICATION_TYPE = U
NORAD_CAT_ID   = 67788
ELEMENT_SET_NO = 999
REV_AT_EPOCH   = 339
BSTAR          = .89531353E-3
MEAN_MOTION_DOT = .31837E-3
MEAN_MOTION_DDOT = 0

CCSDS_OMM_VERS = 2.0
CREATION_DATE  = 
ORIGINATOR     = 

OBJECT_NAME    = KUIPER-00266
OBJECT_ID      = 2026-030AB
CENTER_NAME    = EARTH
REF_FRAME      = TEME
TIME_SYSTEM    = UTC
MEAN_ELEMENT_THEORY = SGP/SGP4

EPOCH          = 2026-02-26T14:22:43.738176
MEAN_MOTION    = 15.30962503
ECCENTRICITY   = .0022302
INCLINATION    = 51.8822
RA_OF_ASC_NODE = 272.9719
ARG_OF_PERICENTER = 38.5846
MEAN_ANOMALY   = 321.6727

EPHEMERIS_TYPE = 0
CLASSIFICATION_TYPE = U
NORAD_CAT_ID   = 67789
ELEMENT_SET_NO = 999
REV_AT_EPOCH   = 338
BSTAR          = .80874944E-3
MEAN_MOTION_DOT = .2444E-3
MEAN_MOTION_DDOT = 0

CCSDS_OMM_VERS = 2.0
CREATION_DATE  = 
ORIGINATOR     = 

OBJECT_NAME    = KUIPER-00268
OBJECT_ID      = 2026-030AC
CENTER_NAME    = EARTH
REF_FRAME      = TEME
TIME_SYSTEM    = UTC
MEAN_ELEMENT_THEORY = SGP/SGP4

EPOCH          = 2026-02-26T15:06:14.269248
MEAN_MOTION    = 15.35538508
ECCENTRICITY   = .00018668
INCLINATION    = 51.8844
RA_OF_ASC_NODE = 272.4425
ARG_OF_PERICENTER = 29.7777
MEAN_ANOMALY   = 330.3315

EPHEMERIS_TYPE = 0
CLASSIFICATION_TYPE = U
NORAD_CAT_ID   = 67790
ELEMENT_SET_NO = 999
REV_AT_EPOCH   = 339
BSTAR          = .58116376E-3
MEAN_MOTION_DOT = .20053E-3
MEAN_MOTION_DDOT = 0

